SHENZHOU-22             
1 66645U 25272A   25330.11960063  .00021667  00000+0  28092-3 0  9999
2 66645  41.4669 117.5336 0010804 271.9924  87.9677 15.58278261262012
CZ-2F R/B               
1 66646U 25272B   25330.47076975  .00449059  75676-5  29319-3 0  9998
2 66646  41.4431 114.9009 0121080 133.7676 227.3272 16.01945612   219
COSMOS 2598 (RODNIK-S *)
1 66648U 25273B   25330.20091316  .00000023  00000+0  93658-4 0  9993
2 66648  82.5016 296.7269 0008406 316.5340  43.5076 12.42253700    84
